{
  "norad_id": 63053,
  "name": "STARLINK-11563 [DTC]",
  "history": [
    {
      "epoch": "2026-03-28T20:03:47.296512Z",
      "apogee_km": 358.33704154475436,
      "perigee_km": 353.9975905295869,
      "latitude_deg": 6.878586821935634e-06,
      "longitude_deg": 132.60113883741957,
      "height_km": 355.6888155230089,
      "semi_major_axis_km": 6734.304316037171,
      "eccentricity": 0.00032219,
      "inclination_deg": 43.0007,
      "raan_deg": 259.7989,
      "arg_perigee_deg": 276.6784,
      "mean_anomaly_deg": 83.3717,
      "mean_motion_rev_day": 15.70954676
    }
  ]
}